{
"type": "FeatureCollection",
"name": "park_interscambio",
"_fonte": "Comune di Milano - Open Data, dataset ds45 'Mobilità: localizzazione dei parcheggi di interscambio' (AMAT), licenza CC BY",
"features": [
{ "type": "Feature", "properties": { "Nome": "FAMAGOSTA", "TAB1": "2200 POSTI AUTO", "INFO": "CORRISPONDENZA  LINEA MM2", "Zona": "6", "indirizzo": "VLE FAMAGOSTA" }, "geometry": { "type": "Point", "coordinates": [ 9.169528930387113, 45.436621444634262 ] } },
{ "type": "Feature", "properties": { "Nome": "SAN DONATO - EMILIA", "TAB1": "1000 POSTI AUTO", "INFO": "CORRISPONDENZA  LINEA MM3", "Zona": "4", "indirizzo": "VIA SAN DONATO - EMILIA" }, "geometry": { "type": "Point", "coordinates": [ 9.257988336715684, 45.429706245059847 ] } },
{ "type": "Feature", "properties": { "Nome": "MOLINETTO DI LORENTEGGIO", "TAB1": "450 POSTI AUTO", "INFO": "CORRISPONDENZA  LINEA TRAM 14", "Zona": "6", "indirizzo": "VIA MOLINETTO DI LORENTEGGIO" }, "geometry": { "type": "Point", "coordinates": [ 9.116997046580188, 45.442794250376785 ] } },
{ "type": "Feature", "properties": { "Nome": "MOLINO DORINO", "TAB1": "1700 POSTI AUTO", "INFO": "CORRISPONDENZA  LINEA MM1", "Zona": "8", "indirizzo": "VIA MOLINO DORINO" }, "geometry": { "type": "Point", "coordinates": [ 9.094664864942491, 45.505861435613028 ] } },
{ "type": "Feature", "properties": { "Nome": "SAN LEONARDO", "TAB1": "360 POSTI AUTO", "INFO": "CORRISPONDENZA  LINEA MM1", "Zona": "8", "indirizzo": "VIA SAN LEONARDO" }, "geometry": { "type": "Point", "coordinates": [ 9.102238345758575, 45.500239562853643 ] } },
{ "type": "Feature", "properties": { "Nome": "RIPAMONTI", "TAB1": "140 POSTI AUTO", "INFO": "CORRISPONDENZA  LINEA TRAM 24", "Zona": "5", "indirizzo": "VLE RIPAMONTI" }, "geometry": { "type": "Point", "coordinates": [ 9.203545590066966, 45.421009752956756 ] } },
{ "type": "Feature", "properties": { "Nome": "FORLANINI", "TAB1": "400 POSTI AUTO", "INFO": "CORRISPONDENZA  LINEA TRAM 27, BUS 73 e 45", "Zona": "4", "indirizzo": "VLE FORLANINI" }, "geometry": { "type": "Point", "coordinates": [ 9.239324803190504, 45.463141119745565 ] } },
{ "type": "Feature", "properties": { "Nome": "CRESCENZAGO", "TAB1": "600 POSTI AUTO", "INFO": "CORRISPONDENZA  LINEA MM2", "Zona": "3", "indirizzo": "VIA CRESCENZAGO" }, "geometry": { "type": "Point", "coordinates": [ 9.248093684292481, 45.503998213805829 ] } },
{ "type": "Feature", "properties": { "Nome": "CASCINA GOBBA", "TAB1": "1373 POSTI AUTO (1356 + 17 disabili)", "INFO": "CORRISPONDENZA  LINEA MM2", "Zona": "3", "indirizzo": "VIA CASCINA GOBBA" }, "geometry": { "type": "Point", "coordinates": [ 9.260523862869796, 45.509735962103093 ] } },
{ "type": "Feature", "properties": { "Nome": "BOVISA", "TAB1": "1200 POSTI AUTO", "INFO": "CORRISPONDENZA  LINEA INTERSCAMBIO CON FNM", "Zona": "9", "indirizzo": "VIA BOVISA" }, "geometry": { "type": "Point", "coordinates": [ 9.160537391572152, 45.502935860974873 ] } },
{ "type": "Feature", "properties": { "Nome": "ORNATO", "TAB1": "320 POSTI AUTO", "INFO": "CORRISPONDENZA  LINEA METROTRANVIA NORD", "Zona": "9", "indirizzo": "VIA ORNATO" }, "geometry": { "type": "Point", "coordinates": [ 9.191387837803102, 45.524993571740922 ] } },
{ "type": "Feature", "properties": { "Nome": "ROMOLO", "TAB1": "515 POSTI AUTO (464 + 44 rosa + 7 disabili)", "INFO": "CORRISPONDENZA  LINEA MM2", "Zona": "6", "indirizzo": "VIA ROMOLO" }, "geometry": { "type": "Point", "coordinates": [ 9.168164442631268, 45.441734555359204 ] } },
{ "type": "Feature", "properties": { "Nome": "LAMPUGNANO", "TAB1": "2000 POSTI AUTO", "INFO": "CORRISPONDENZA  LINEA MM1", "Zona": "8", "indirizzo": "VIA LAMPUGNANO" }, "geometry": { "type": "Point", "coordinates": [ 9.127822244030744, 45.488762996407957 ] } },
{ "type": "Feature", "properties": { "Nome": "BISCEGLIE", "TAB1": "1400 POSTI AUTO", "INFO": "CORRISPONDENZA  LINEA MM1", "Zona": "6", "indirizzo": "VIA BISCEGLIE" }, "geometry": { "type": "Point", "coordinates": [ 9.113842154854252, 45.453623384830038 ] } },
{ "type": "Feature", "properties": { "Nome": "SAN DONATO - PAULLESE", "TAB1": "1000 POSTI AUTO", "INFO": "CORRISPONDENZA  LINEA MM3", "Zona": "4", "indirizzo": "VIA SAN DONATO - PAULLESE" }, "geometry": { "type": "Point", "coordinates": [ 9.258413165681175, 45.430307984908353 ] } },
{ "type": "Feature", "properties": { "Nome": "COLOGNO NORD", "TAB1": "614 POSTI AUTO", "INFO": "CORRISPONDENZA  LINEA MM2", "Zona": "Fuori Comune", "indirizzo": "-" }, "geometry": { "type": "Point", "coordinates": [ 9.291314220461064, 45.5333025419392 ] } },
{ "type": "Feature", "properties": { "Nome": "GESSATE", "TAB1": "500 POSTI AUTO", "INFO": "CORRISPONDENZA  LINEA MM2", "Zona": "Fuori Comune", "indirizzo": "-" }, "geometry": { "type": "Point", "coordinates": [ 9.439226921680136, 45.546275598651896 ] } },
{ "type": "Feature", "properties": { "Nome": "CATERINA DA FORLI'", "TAB1": "399 POSTI AUTO", "INFO": "CORRISPONDENZA  LINEA MM1", "Zona": "7", "indirizzo": "VIA CATERINA DA FORLI'" }, "geometry": { "type": "Point", "coordinates": [ 9.138655079377425, 45.461131667765827 ] } },
{ "type": "Feature", "properties": { "Nome": "QUARTO OGGIARO", "TAB1": "543 POSTI AUTO (509 + 18 rosa + 17 disabili)", "INFO": "CORRISPONDENZA  LINEA FERROVIE NORD", "Zona": "9", "indirizzo": "ZONA QUARTO OGGIARO" }, "geometry": { "type": "Point", "coordinates": [ 9.146789681304236, 45.51967152161545 ] } },
{ "type": "Feature", "properties": { "Nome": "MACIACHINI", "TAB1": "426 POSTI AUTO (387 + 30 rosa + 9 disabili)", "INFO": "CORRISPONDENZA  LINEA MM3", "Zona": "9", "indirizzo": "PLE MACIACHINI" }, "geometry": { "type": "Point", "coordinates": [ 9.188498554545323, 45.497710456426347 ] } },
{ "type": "Feature", "properties": { "Nome": "EINAUDI", "TAB1": "727 POSTI AUTO", "INFO": "CORRISPONDENZA  LINEA MM2", "Zona": "9", "indirizzo": "PZA EINAUDI" }, "geometry": { "type": "Point", "coordinates": [ 9.194509136347891, 45.483397877358357 ] } }
]
}
